NORAD_CAT_ID,OBJECT_NAME,OBJECT_TYPE,EPOCH,MEAN_MOTION,ECCENTRICITY,INCLINATION,RA_OF_ASC_NODE,ARG_OF_PERICENTER,MEAN_ANOMALY,BSTAR,MEAN_MOTION_DOT,MEAN_MOTION_DDOT,TLE_LINE0,TLE_LINE1,TLE_LINE2,SEMIMAJOR_AXIS,PERIOD,APOGEE,PERIGEE,DECAYED
52684.0,STARLINK-4014,PAYLOAD,2022-07-30 22:00:00,15.13629341,0.0001654,53.2174,299.8714,40.9179,5.5953,-0.0640049999999999,-0.0107718,0.0,0 STARLINK-4014,1 52684U 22053AE  22211.91667824 -.01077180  00000-0 -64005-1 0  9990,2 52684  53.2174 299.8714 0001654  40.9179   5.5953 15.13629341  1301,6903.28,95.136,526.2869999999998,524.003,0.0
52684.0,STARLINK-4014,PAYLOAD,2022-07-31 14:00:01,15.12110867,0.0001798,53.2174,296.8573,41.5847,37.7889,-0.06683,-0.01077663,0.0,0 STARLINK-4014,1 52684U 22053AE  22212.58334491 -.01077663  00000-0 -66830-1 0  9999,2 52684  53.2174 296.8573 0001798  41.5847  37.7889 15.12110867  1301,6907.901,95.231,531.008,528.524,0.0
52684.0,STARLINK-4014,PAYLOAD,2022-07-31 20:00:01,15.11541484,0.0001564999999999,53.2172,295.7277,43.5582,317.1978,-0.067944,-0.01078223,0.0,0 STARLINK-4014,1 52684U 22053AE  22212.83334491 -.01078223  00000-0 -67944-1 0  9997,2 52684  53.2172 295.7277 0001565  43.5582 317.1978 15.11541484 11945,6909.635,95.267,532.582,530.419,0.0
52684.0,STARLINK-4014,PAYLOAD,2022-07-31 22:00:00,15.11350099,0.0001694,53.2174,295.3512,44.1366,50.3001,-0.068132,-0.01075668,0.0,0 STARLINK-4014,1 52684U 22053AE  22212.91667824 -.01075668  00000-0 -68132-1 0  9995,2 52684  53.2174 295.3512 0001694  44.1366  50.3001 15.11350099  1307,6910.219,95.279,533.254,530.913,0.0
52684.0,STARLINK-4014,PAYLOAD,2022-08-01 14:00:01,15.09753672,0.0001938,53.2175,292.3483,35.1257,86.711,-0.057872,-0.00876895,0.0,0 STARLINK-4014,1 52684U 22053AE  22213.58334491 -.00876895  00000-0 -57872-1 0  9999,2 52684  53.2175 292.3483 0001938  35.1257  86.7110 15.09753672  1307,6915.089,95.38,538.294,535.614,0.0
52684.0,STARLINK-4014,PAYLOAD,2022-08-01 22:00:00,15.09032003,0.0001726,53.2174,290.8485,40.1705,93.9867,-0.018498,-0.00284738,0.0,0 STARLINK-4014,1 52684U 22053AE  22213.91667824 -.00284738  00000-0 -18498-1 0  9995,2 52684  53.2174 290.8485 0001726  40.1705  93.9867 15.09032003 12118,6917.294,95.425,540.352,537.965,0.0
52684.0,STARLINK-4014,PAYLOAD,2022-08-02 06:00:02,15.08836503,0.0001681,53.2176,289.3512,49.9485,95.969,5.756399999999999e-05,6.28e-06,0.0,0 STARLINK-4014,1 52684U 22053AE  22214.25002315  .00000628  00000-0  57564-4 0  9993,2 52684  53.2176 289.3512 0001681  49.9485  95.9690 15.08836503 12163,6917.891,95.438,540.919,538.5930000000002,0.0
52684.0,STARLINK-4014,PAYLOAD,2022-08-02 14:00:01,15.08828181,0.0001906,53.2138,287.8639,44.1901,113.2923,0.0018614999999999,0.00029453,0.0,0 STARLINK-4014,1 52684U 22053AE  22214.58334491  .00029453  00000-0  18615-2 0  9991,2 52684  53.2138 287.8639 0001906  44.1901 113.2923 15.08828181 12216,6917.917,95.438,541.1,538.4630000000002,0.0
52684.0,STARLINK-4014,PAYLOAD,2022-08-03 04:00:00,15.08815101,0.0001625,53.2138,285.2429,48.0956,39.6737,0.00073943,0.00011492,0.0,0 STARLINK-4014,1 52684U 22053AE  22215.16667824  .00011492  00000-0  73943-3 0  9995,2 52684  53.2138 285.2429 0001625  48.0956  39.6737 15.08815101 12308,6917.956,95.439,540.946,538.697,0.0
52684.0,STARLINK-4014,PAYLOAD,2022-08-03 14:00:01,15.08768634,0.0001813,53.2138,283.3743,40.1307,152.1097,0.004901,0.00078427,0.0,0 STARLINK-4014,1 52684U 22053AE  22215.58334491  .00078427  00000-0  49010-2 0  9990,2 52684  53.2138 283.3743 0001813  40.1307 152.1097 15.08768634  1304,6918.099,95.442,541.2180000000002,538.7090000000002,0.0
52684.0,STARLINK-4014,PAYLOAD,2022-08-03 20:00:01,15.08837854,0.0001740999999999,53.2135,282.251,42.3214,68.5659,-0.0020386,-0.00032585,0.0,0 STARLINK-4014,1 52684U 22053AE  22215.83334491 -.00032585  00000-0 -20386-2 0  9990,2 52684  53.2135 282.2510 0001741  42.3214  68.5659 15.08837854 12400,6917.887,95.438,540.956,538.548,0.0
52684.0,STARLINK-4014,PAYLOAD,2022-08-03 22:00:01,15.08828098,0.0001661,53.2137,281.8763,43.8525,159.9954,-0.00095826,-0.00015501,0.0,0 STARLINK-4014,1 52684U 22053AE  22215.91668981 -.00015501  00000-0 -95826-3 0  9994,2 52684  53.2137 281.8763 0001661  43.8525 159.9954 15.08828098  1309,6917.917,95.438,540.931,538.633,0.0
52684.0,STARLINK-4014,PAYLOAD,2022-08-04 12:00:00,15.08825822,0.0001801,53.2136,279.2588,43.0077,91.042,-9.0577e-05,-1.729e-05,0.0,0 STARLINK-4014,1 52684U 22053AE  22216.50001157 -.00001729  00000-0 -90577-4 0  9992,2 52684  53.2136 279.2588 0001801  43.0077  91.0420 15.08825822 12504,6917.924,95.438,541.035,538.543,0.0
52684.0,STARLINK-4014,PAYLOAD,2022-08-04 14:00:01,15.08808969,0.0001829,53.2136,278.8849,41.4091,185.5402,0.002337,0.0003707,0.0,0 STARLINK-4014,1 52684U 22053AE  22216.58334491  .00037070  00000-0  23370-2 0  9991,2 52684  53.2136 278.8849 0001829  41.4091 185.5402 15.08808969  1305,6917.975,95.44,541.106,538.575,0.0
52684.0,STARLINK-4014,PAYLOAD,2022-08-04 22:00:00,15.08832636,0.000165,53.2135,277.3868,44.7531,193.7736,-0.00045988,-7.598e-05,0.0,0 STARLINK-4014,1 52684U 22053AE  22216.91667824 -.00007598  00000-0 -45988-3 0  9991,2 52684  53.2135 277.3868 0001650  44.7531 193.7736 15.08832636  1305,6917.903,95.438,540.909,538.626,0.0
52684.0,STARLINK-4014,PAYLOAD,2022-08-05 14:00:01,15.08815567,0.0001838,53.2133,274.3954,42.1291,219.6426,0.0025765,0.00040928,0.0,0 STARLINK-4014,1 52684U 22053AE  22217.58335648  .00040928  00000-0  25765-2 0  9993,2 52684  53.2133 274.3954 0001838  42.1291 219.6426 15.08815567  1307,6917.955,95.439,541.092,538.549,0.0
52684.0,STARLINK-4014,PAYLOAD,2022-08-05 22:00:00,15.08836051,0.0001673,53.2132,272.8973,45.7066,227.5912,0.00010904,1.448e-05,0.0,0 STARLINK-4014,1 52684U 22053AE  22217.91667824  .00001448  00000-0  10904-3 0  9998,2 52684  53.2132 272.8973 0001673  45.7066 227.5912 15.08836051 12712,6917.892,95.438,540.915,538.6,0.0
52684.0,STARLINK-4014,PAYLOAD,2022-08-06 14:00:01,15.08823093,0.0001872,53.2129,269.906,42.4489,254.0477,0.0027229,0.00043294,0.0,0 STARLINK-4014,1 52684U 22053AE  22218.58334491  .00043294  00000-0  27229-2 0  9995,2 52684  53.2129 269.9060 0001872  42.4489 254.0477 15.08823093  1302,6917.932,95.439,541.092,538.502,0.0
52684.0,STARLINK-4014,PAYLOAD,2022-08-06 22:00:00,15.08838882,0.0001723,53.2129,268.4078,46.1602,261.9356,0.00069081,0.00010723,0.0,0 STARLINK-4014,1 52684U 22053AE  22218.91667824  .00010723  00000-0  69081-3 0  9995,2 52684  53.2129 268.4078 0001723  46.1602 261.9356 15.08838882  1303,6917.884,95.438,540.941,538.557,0.0
52684.0,STARLINK-4014,PAYLOAD,2022-08-07 02:59:57,15.08842236,0.0001810999999999,53.214,267.4727,46.099,314.0152,8.834299999999999e-05,1.118e-05,0.0,0 STARLINK-4014,1 52684U 22053AE  22219.12496724  .00001118  00000-0  88343-4 0  9999,2 52684  53.2140 267.4727 0001811  46.0990 314.0152 15.08842236 12891,6917.874,95.437,540.991,538.486,0.0
52684.0,STARLINK-4014,PAYLOAD,2022-08-07 10:56:52,15.08845122,0.0001831,53.214,265.9858,46.2709,313.8435,9.2877e-05,1.191e-05,0.0,0 STARLINK-4014,1 52684U 22053AE  22219.45616449  .00001191  00000-0  92877-4 0  9991,2 52684  53.2140 265.9858 0001831  46.2709 313.8435 15.08845122 13339,6917.865,95.437,540.996,538.4630000000002,0.0
52684.0,STARLINK-4014,PAYLOAD,2022-08-07 22:00:00,15.08836103,0.0001733999999999,53.2129,263.9182,44.2861,298.6396,-0.00025609,-4.361e-05,0.0,0 STARLINK-4014,1 52684U 22053AE  22219.91667824 -.00004361  00000-0 -25609-3 0  9997,2 52684  53.2129 263.9182 0001734  44.2861 298.6396 15.08836103  1302,6917.892,95.438,540.957,538.558,0.0
52684.0,STARLINK-4014,PAYLOAD,2022-08-08 04:00:00,15.0884339,0.0001747,53.2129,262.7959,46.7237,214.8911,0.00019831,2.87e-05,0.0,0 STARLINK-4014,1 52684U 22053AE  22220.16667824  .00002870  00000-0  19831-3 0  9997,2 52684  53.2129 262.7959 0001747  46.7237 214.8911 15.08843390 13053,6917.87,95.437,540.944,538.526,0.0
52684.0,STARLINK-4014,PAYLOAD,2022-08-08 14:00:01,15.08825158,0.0001955999999999,53.2128,260.927,39.4433,326.7385,0.0029065,0.00046254,0.0,0 STARLINK-4014,1 52684U 22053AE  22220.58335648  .00046254  00000-0  29065-2 0  9992,2 52684  53.2128 260.9270 0001956  39.4433 326.7385 15.08825158  1302,6917.926,95.438,541.144,538.438,0.0
52684.0,STARLINK-4014,PAYLOAD,2022-08-08 22:00:00,15.08842996,0.0001815,53.213,259.4288,44.3769,333.3493,0.0010098,0.00015821,0.0,0 STARLINK-4014,1 52684U 22053AE  22220.91667824  .00015821  00000-0  10098-2 0  9995,2 52684  53.2130 259.4288 0001815  44.3769 333.3493 15.08842996  1301,6917.871,95.437,540.992,538.481,0.0
52684.0,STARLINK-4014,PAYLOAD,2022-08-09 12:00:00,15.08817761,0.0002119,53.213,256.8117,43.2957,264.7361,0.0018176,0.0002874,0.0,0 STARLINK-4014,1 52684U 22053AE  22221.50001157  .00028740  00000-0  18176-2 0  9991,2 52684  53.2130 256.8117 0002119  43.2957 264.7361 15.08817761 13258,6917.948,95.439,541.279,538.347,0.0
52684.0,STARLINK-4014,PAYLOAD,2022-08-09 14:00:01,15.08827165,0.0002089,53.2128,256.4376,41.2802,359.6448,0.00071802,0.00011154,0.0,0 STARLINK-4014,1 52684U 22053AE  22221.58334491  .00011154  00000-0  71802-3 0  9996,2 52684  53.2128 256.4376 0002089  41.2802 359.6448 15.08827165  1303,6917.92,95.438,541.23,538.339,0.0
52684.0,STARLINK-4014,PAYLOAD,2022-08-09 20:00:01,15.08832588,0.0001940999999999,53.213,255.3138,44.1729,275.4429,-0.0024506,-0.00039071,0.0,0 STARLINK-4014,1 52684U 22053AE  22221.83334491 -.00039071  00000-0 -24506-2 0  9992,2 52684  53.2130 255.3138 0001941  44.1729 275.4429 15.08832588 13308,6917.903,95.438,541.111,538.425,0.0
52684.0,STARLINK-4014,PAYLOAD,2022-08-09 22:00:00,15.08797613,0.0001862,53.2129,254.9394,45.1019,7.4184,0.0016902,0.00026683,0.0,0 STARLINK-4014,1 52684U 22053AE  22221.91667824  .00026683  00000-0  16902-2 0  9994,2 52684  53.2129 254.9394 0001862  45.1019   7.4184 15.08797613  1307,6918.01,95.44,541.163,538.587,0.0
